STARLINK-31149          
1 58863U 24019L   26068.53362764 -.00004203  00000+0 -14324-3 0  9991
2 58863  42.9972 249.3676 0000631 268.5815  91.4965 15.27591575119065
HAWK-11B                
1 62379U 24247C   26068.44730104  .00009093  00000+0  32842-3 0  9993
2 62379  45.0161 115.7610 0004690 333.0326  27.0314 15.28847070 67738
